{"type": "FeatureCollection", "features": [ {"type": "Feature", "properties": {"norad_id": 38728, "name": "FENGYUN 1C DEB", "group": "fengyun-1c-debris", "lat": 5.642273686797967, "lon": 144.9367072588867, "alt_km": 664.5853616717613, "timestamp": "2025-12-03T20:47:58.514202+00:00", "meta": {"OBJECT_NAME": "FENGYUN 1C DEB", "OBJECT_ID": "1999-025ETV", "EPOCH": "2025-11-16T05:14:29.255424", "MEAN_MOTION": 14.70051998, "ECCENTRICITY": 0.007529, "INCLINATION": 99.2572, "RA_OF_ASC_NODE": 304.0044, "ARG_OF_PERICENTER": 134.9946, "MEAN_ANOMALY": 282.883, "EPHEMERIS_TYPE": 0, "CLASSIFICATION_TYPE": "U", "NORAD_CAT_ID": 38728, "ELEMENT_SET_NO": 999, "REV_AT_EPOCH": 65221, "BSTAR": 0.0016686128, "MEAN_MOTION_DOT": 0.00010414, "MEAN_MOTION_DDOT": 0}, "tle": {"line1": "1 38728U 99025ETV 25320.21839416  .00010414  00000+0  16686-2 0  9997", "line2": "2 38728  99.2572 304.0044 0075290 134.9946 282.8830 14.70051998652219"}}, "geometry": {"type": "Point", "coordinates": [144.9367072588867, 5.642273686797967]}}, {"type": "Feature", "properties": {"norad_id": 38795, "name": "FENGYUN 1C DEB", "group": "fengyun-1c-debris", "lat": 52.26858622823613, "lon": -9.251884393301541, "alt_km": 1402.5414587734685, "timestamp": "2025-12-03T20:47:58.514213+00:00", "meta": {"OBJECT_NAME": "FENGYUN 1C DEB", "OBJECT_ID": "1999-025EUK", "EPOCH": "2025-12-02T08:24:42.599520", "MEAN_MOTION": 13.29800561, "ECCENTRICITY": 0.05040855, "INCLINATION": 98.7022, "RA_OF_ASC_NODE": 0.8783, "ARG_OF_PERICENTER": 281.6333, "MEAN_ANOMALY": 72.8653, "EPHEMERIS_TYPE": 0, "CLASSIFICATION_TYPE": "U", "NORAD_CAT_ID": 38795, "ELEMENT_SET_NO": 999, "REV_AT_EPOCH": 78374, "BSTAR": 0.003965023, "MEAN_MOTION_DOT": 3.692e-05, "MEAN_MOTION_DDOT": 0}, "tle": {"line1": "1 38795U 99025EUK 25336.35049305  .00003692  00000+0  39650-2 0  9999", "line2": "2 38795  98.7022   0.8783 0504085 281.6333  72.8653 13.29800561783741"}}, "geometry": {"type": "Point", "coordinates": [-9.251884393301541, 52.26858622823613]}}, {"type": "Feature", "properties": {"norad_id": 38797, "name": "FENGYUN 1C DEB", "group": "fengyun-1c-debris", "lat": -65.66822398676838, "lon": -107.34159094341355, "alt_km": 914.2128765532962, "timestamp": "2025-12-03T20:47:58.514223+00:00", "meta": {"OBJECT_NAME": "FENGYUN 1C DEB", "OBJECT_ID": "1999-025EUM", "EPOCH": "2025-12-02T22:12:06.827328", "MEAN_MOTION": 13.61602332, "ECCENTRICITY": 0.02450643, "INCLINATION": 99.4847, "RA_OF_ASC_NODE": 230.0465, "ARG_OF_PERICENTER": 246.4829, "MEAN_ANOMALY": 111.0391, "EPHEMERIS_TYPE": 0, "CLASSIFICATION_TYPE": "U", "NORAD_CAT_ID": 38797, "ELEMENT_SET_NO": 999, "REV_AT_EPOCH": 59149, "BSTAR": 0.00041657414, "MEAN_MOTION_DOT": 3.45e-06, "MEAN_MOTION_DDOT": 0}, "tle": {"line1": "1 38797U 99025EUM 25336.92507902  .00000345  00000+0  41657-3 0  9999", "line2": "2 38797  99.4847 230.0465 0245064 246.4829 111.0391 13.61602332591494"}}, "geometry": {"type": "Point", "coordinates": [-107.34159094341355, -65.66822398676838]}}, {"type": "Feature", "properties": {"norad_id": 38799, "name": "FENGYUN 1C DEB", "group": "fengyun-1c-debris", "lat": 42.47513483122865, "lon": 45.575810952586956, "alt_km": 620.547422736845, "timestamp": "2025-12-03T20:47:58.514233+00:00", "meta": {"OBJECT_NAME": "FENGYUN 1C DEB", "OBJECT_ID": "1999-025EUP", "EPOCH": "2025-11-26T11:13:58.529856", "MEAN_MOTION": 14.48569792, "ECCENTRICITY": 0.01649657, "INCLINATION": 98.4067, "RA_OF_ASC_NODE": 45.9896, "ARG_OF_PERICENTER": 40.0513, "MEAN_ANOMALY": 321.2709, "EPHEMERIS_TYPE": 0, "CLASSIFICATION_TYPE": "U", "NORAD_CAT_ID": 38799, "ELEMENT_SET_NO": 999, "REV_AT_EPOCH": 63803, "BSTAR": 0.00099755644, "MEAN_MOTION_DOT": 4.406e-05, "MEAN_MOTION_DDOT": 0}, "tle": {"line1": "1 38799U 99025EUP 25330.46803854  .00004406  00000+0  99756-3 0  9994", "line2": "2 38799  98.4067  45.9896 0164965  40.0513 321.2709 14.48569792638036"}}, "geometry": {"type": "Point", "coordinates": [45.575810952586956, 42.47513483122865]}}, {"type": "Feature", "properties": {"norad_id": 38801, "name": "FENGYUN 1C DEB", "group": "fengyun-1c-debris", "lat": -0.275457310175446, "lon": 28.91535814999249, "alt_km": 573.9087782425286, "timestamp": "2025-12-03T20:47:58.514244+00:00", "meta": {"OBJECT_NAME": "FENGYUN 1C DEB", "OBJECT_ID": "1999-025EUR", "EPOCH": "2025-11-30T22:34:32.153088", "MEAN_MOTION": 14.2473338, "ECCENTRICITY": 0.03480153, "INCLINATION": 98.3753, "RA_OF_ASC_NODE": 26.0769, "ARG_OF_PERICENTER": 26.6828, "MEAN_ANOMALY": 95.3295, "EPHEMERIS_TYPE": 0, "CLASSIFICATION_TYPE": "U", "NORAD_CAT_ID": 38801, "ELEMENT_SET_NO": 999, "REV_AT_EPOCH": 64192, "BSTAR": 0.00055786382, "MEAN_MOTION_DOT": 2.4e-05, "MEAN_MOTION_DDOT": 0}, "tle": {"line1": "1 38801U 99025EUR 25334.94064992  .00002400  00000+0  55786-3 0  9994", "line2": "2 38801  98.3753  26.0769 0348015  26.6828  95.3295 14.24733380641920"}}, "geometry": {"type": "Point", "coordinates": [28.91535814999249, -0.275457310175446]}}, {"type": "Feature", "properties": {"norad_id": 38803, "name": "FENGYUN 1C DEB", "group": "fengyun-1c-debris", "lat": -80.32488000517895, "lon": 90.60864226461946, "alt_km": 862.6009783570489, "timestamp": "2025-12-03T20:47:58.514254+00:00", "meta": {"OBJECT_NAME": "FENGYUN 1C DEB", "OBJECT_ID": "1999-025EUT", "EPOCH": "2025-12-02T23:18:31.375872", "MEAN_MOTION": 14.23518858, "ECCENTRICITY": 0.00644877, "INCLINATION": 99.1384, "RA_OF_ASC_NODE": 340.4394, "ARG_OF_PERICENTER": 63.9975, "MEAN_ANOMALY": 296.7825, "EPHEMERIS_TYPE": 0, "CLASSIFICATION_TYPE": "U", "NORAD_CAT_ID": 38803, "ELEMENT_SET_NO": 999, "REV_AT_EPOCH": 60073, "BSTAR": 0.0027014694, "MEAN_MOTION_DOT": 6.236e-05, "MEAN_MOTION_DDOT": 0}, "tle": {"line1": "1 38803U 99025EUT 25336.97119648  .00006236  00000+0  27015-2 0  9994", "line2": "2 38803  99.1384 340.4394 0064487  63.9975 296.7825 14.23518858600733"}}, "geometry": {"type": "Point", "coordinates": [90.60864226461946, -80.32488000517895]}}, {"type": "Feature", "properties": {"norad_id": 38809, "name": "FENGYUN 1C DEB", "group": "fengyun-1c-debris", "lat": 34.724657427156366, "lon": -17.698509560961377, "alt_km": 707.4032613287163, "timestamp": "2025-12-03T20:47:58.514287+00:00", "meta": {"OBJECT_NAME": "FENGYUN 1C DEB", "OBJECT_ID": "1999-025EUZ", "EPOCH": "2025-12-03T07:05:40.187328", "MEAN_MOTION": 14.18123896, "ECCENTRICITY": 0.0223065, "INCLINATION": 98.5889, "RA_OF_ASC_NODE": 347.761, "ARG_OF_PERICENTER": 355.3792, "MEAN_ANOMALY": 4.5323, "EPHEMERIS_TYPE": 0, "CLASSIFICATION_TYPE": "U", "NORAD_CAT_ID": 38809, "ELEMENT_SET_NO": 999, "REV_AT_EPOCH": 69072, "BSTAR": 0.00090155, "MEAN_MOTION_DOT": 2.321e-05, "MEAN_MOTION_DDOT": 0}, "tle": {"line1": "1 38809U 99025EUZ 25337.29560402  .00002321  00000+0  90155-3 0  9991", "line2": "2 38809  98.5889 347.7610 0223065 355.3792   4.5323 14.18123896690721"}}, "geometry": {"type": "Point", "coordinates": [-17.698509560961377, 34.724657427156366]}}, {"type": "Feature", "properties": {"norad_id": 38813, "name": "FENGYUN 1C DEB", "group": "fengyun-1c-debris", "lat": 69.75837018678455, "lon": -51.98775553517084, "alt_km": 816.2365716626473, "timestamp": "2025-12-03T20:47:58.514299+00:00", "meta": {"OBJECT_NAME": "FENGYUN 1C DEB", "OBJECT_ID": "1999-025EVD", "EPOCH": "2025-12-01T17:44:02.872896", "MEAN_MOTION": 14.20124404, "ECCENTRICITY": 0.00061305, "INCLINATION": 99.3455, "RA_OF_ASC_NODE": 332.2907, "ARG_OF_PERICENTER": 143.0544, "MEAN_ANOMALY": 217.1054, "EPHEMERIS_TYPE": 0, "CLASSIFICATION_TYPE": "U", "NORAD_CAT_ID": 38813, "ELEMENT_SET_NO": 999, "REV_AT_EPOCH": 48094, "BSTAR": 0.00057863014, "MEAN_MOTION_DOT": 1.185e-05, "MEAN_MOTION_DDOT": 0}, "tle": {"line1": "1 38813U 99025EVD 25335.73892214  .00001185  00000+0  57863-3 0  9998", "line2": "2 38813  99.3455 332.2907 0006130 143.0544 217.1054 14.20124404480944"}}, "geometry": {"type": "Point", "coordinates": [-51.98775553517084, 69.75837018678455]}}, {"type": "Feature", "properties": {"norad_id": 38817, "name": "FENGYUN 1C DEB", "group": "fengyun-1c-debris", "lat": -76.76870437087676, "lon": -10.758796469194584, "alt_km": 1262.0847099701623, "timestamp": "2025-12-03T20:47:58.514309+00:00", "meta": {"OBJECT_NAME": "FENGYUN 1C DEB", "OBJECT_ID": "1999-025EVH", "EPOCH": "2025-12-03T10:41:28.354848", "MEAN_MOTION": 13.57640916, "ECCENTRICITY": 0.02908, "INCLINATION": 98.6006, "RA_OF_ASC_NODE": 208.9364, "ARG_OF_PERICENTER": 68.5289, "MEAN_ANOMALY": 294.6598, "EPHEMERIS_TYPE": 0, "CLASSIFICATION_TYPE": "U", "NORAD_CAT_ID": 38817, "ELEMENT_SET_NO": 999, "REV_AT_EPOCH": 65708, "BSTAR": 0.0025283, "MEAN_MOTION_DOT": 2.357e-05, "MEAN_MOTION_DDOT": 0}, "tle": {"line1": "1 38817U 99025EVH 25337.44546707  .00002357  00000+0  25283-2 0  9997", "line2": "2 38817  98.6006 208.9364 0290800  68.5289 294.6598 13.57640916657088"}}, "geometry": {"type": "Point", "coordinates": [-10.758796469194584, -76.76870437087676]}}, {"type": "Feature", "properties": {"norad_id": 38818, "name": "FENGYUN 1C DEB", "group": "fengyun-1c-debris", "lat": 81.55196901707345, "lon": -66.08622241389439, "alt_km": 700.4234078931986, "timestamp": "2025-12-03T20:47:58.514320+00:00", "meta": {"OBJECT_NAME": "FENGYUN 1C DEB", "OBJECT_ID": "1999-025EVJ", "EPOCH": "2025-11-27T09:30:24.153696", "MEAN_MOTION": 14.39418793, "ECCENTRICITY": 0.00885007, "INCLINATION": 98.3025, "RA_OF_ASC_NODE": 28.1739, "ARG_OF_PERICENTER": 145.1281, "MEAN_ANOMALY": 276.4662, "EPHEMERIS_TYPE": 0, "CLASSIFICATION_TYPE": "U", "NORAD_CAT_ID": 38818, "ELEMENT_SET_NO": 999, "REV_AT_EPOCH": 67027, "BSTAR": 0.00050962146, "MEAN_MOTION_DOT": 1.618e-05, "MEAN_MOTION_DDOT": 0}, "tle": {"line1": "1 38818U 99025EVJ 25331.39611289  .00001618  00000+0  50962-3 0  9996", "line2": "2 38818  98.3025  28.1739 0088500 145.1281 276.4662 14.39418793670274"}}, "geometry": {"type": "Point", "coordinates": [-66.08622241389439, 81.55196901707345]}}]}